GLOBALSTAR M094         
1 39074U 13005C   25348.32049797 -.00000089  00000+0  81281-4 0  9996
2 39074  51.9976 353.6641 0000174  19.5412 340.5461 12.62265361595123
GLOBALSTAR M096         
1 39075U 13005D   25348.17518456 -.00000103  00000+0  63103-5 0  9994
2 39075  52.0089  42.7600 0000249 145.8143 214.2740 12.62269332594026
GLOBALSTAR M078         
1 39076U 13005E   25348.30756602 -.00000086  00000+0  99331-4 0  9998
2 39076  51.9858 126.6241 0000943 165.1778 194.9117 12.62272516592660
GLOBALSTAR M095         
1 39077U 13005F   25348.33380441 -.00000093  00000+0  58406-4 0  9992
2 39077  52.0064 123.8852 0000607 130.2018 229.8902 12.62267302592528
GLOBALSTAR M087         
1 52888U 22064A   25348.10928522 -.00000086  00000+0  10038-3 0  9995
2 52888  52.0001 265.9140 0000606  44.8165 315.2750 12.62261380167769
